NORAD_CAT_ID,OBJECT_NAME,OBJECT_TYPE,EPOCH,MEAN_MOTION,ECCENTRICITY,INCLINATION,RA_OF_ASC_NODE,ARG_OF_PERICENTER,MEAN_ANOMALY,BSTAR,MEAN_MOTION_DOT,MEAN_MOTION_DDOT,TLE_LINE0,TLE_LINE1,TLE_LINE2,SEMIMAJOR_AXIS,PERIOD,APOGEE,PERIGEE,DECAYED
51757.0,STARLINK-3459,PAYLOAD,2022-10-22 09:49:09,15.08852269,0.0002083,53.2184,90.029,35.0684,325.0445,0.00015285,2.146e-05,0.0,0 STARLINK-3459,1 51757U 22016AV  22295.40913704  .00002146  00000-0  15285-3 0  9991,2 51757  53.2184  90.0290 0002083  35.0684 325.0445 15.08852269 37378,6917.843000000003,95.437,541.149,538.2669999999998,0.0
51757.0,STARLINK-3459,PAYLOAD,2022-10-22 19:21:28,15.08844893,0.0002098,53.2191,88.2448,37.7913,322.3226,5.1867e-05,5.37e-06,0.0,0 STARLINK-3459,1 51757U 22016AV  22295.80658367  .00000537  00000-0  51867-4 0  9995,2 51757  53.2191  88.2448 0002098  37.7913 322.3226 15.08844893 37438,6917.865,95.437,541.182,538.279,0.0
51757.0,STARLINK-3459,PAYLOAD,2022-10-23 11:15:19,15.08852705,0.0002153,53.2182,85.2707,39.3224,320.7924,0.00022066,3.227e-05,0.0,0 STARLINK-3459,1 51757U 22016AV  22296.46897496  .00003227  00000-0  22066-3 0  9993,2 51757  53.2182  85.2707 0002153  39.3224 320.7924 15.08852705 37537,6917.842,95.437,541.196,538.217,0.0
51757.0,STARLINK-3459,PAYLOAD,2022-10-23 17:36:51,15.08855889,0.0002169,53.2181,84.0814,38.4147,321.6999,0.00030015,4.494e-05,0.0,0 STARLINK-3459,1 51757U 22016AV  22296.73393318  .00004494  00000-0  30015-3 0  9997,2 51757  53.2181  84.0814 0002169  38.4147 321.6999 15.08855889 37575,6917.831999999999,95.437,541.197,538.196,0.0
51757.0,STARLINK-3459,PAYLOAD,2022-10-24 03:09:10,15.08847185,0.0002188,53.2181,82.2972,39.6123,320.5029,0.00011341,1.517e-05,0.0,0 STARLINK-3459,1 51757U 22016AV  22297.13137513  .00001517  00000-0  11341-3 0  9999,2 51757  53.2181  82.2972 0002188  39.6123 320.5029 15.08847185 38740,6917.858,95.437,541.237,538.21,0.0
51757.0,STARLINK-3459,PAYLOAD,2022-10-24 09:30:43,15.08840082,0.0002213,53.2182,81.1078,40.2007,319.9148,-2.2968e-05,-6.54e-06,0.0,0 STARLINK-3459,1 51757U 22016AV  22297.39633738 -.00000654  00000-0 -22968-4 0  9998,2 51757  53.2182  81.1078 0002213  40.2007 319.9148 15.08840082 37678,6917.88,95.438,541.276,538.214,0.0
51757.0,STARLINK-3459,PAYLOAD,2022-10-24 12:41:30,15.08834573,0.0002205,53.2183,80.5131,40.2559,319.8597,5.7984e-05,6.35e-06,0.0,0 STARLINK-3459,1 51757U 22016AV  22297.52882054  .00000635  00000-0  57984-4 0  9993,2 51757  53.2183  80.5131 0002205  40.2559 319.8597 15.08834573 38806,6917.897,95.438,541.2869999999998,538.237,0.0
51757.0,STARLINK-3459,PAYLOAD,2022-10-24 15:52:16,15.08837853,0.0002275,53.2183,79.9182,40.6684,319.4477,-0.00011595,-2.133e-05,0.0,0 STARLINK-3459,1 51757U 22016AV  22297.66129820 -.00002133  00000-0 -11595-3 0  9997,2 51757  53.2183  79.9182 0002275  40.6684 319.4477 15.08837853 37710,6917.887,95.438,541.326,538.178,0.0
51757.0,STARLINK-3459,PAYLOAD,2022-10-25 04:35:23,15.08824017,0.0002203,53.2207,77.5415,38.9693,321.1457,-0.00012227,-2.233e-05,0.0,0 STARLINK-3459,1 51757U 22016AV  22298.19123910 -.00002233  00000-0 -12227-3 0  9994,2 51757  53.2207  77.5415 0002203  38.9693 321.1457 15.08824017 38909,6917.929,95.439,541.318,538.27,0.0
51757.0,STARLINK-3459,PAYLOAD,2022-10-25 09:21:32,15.08830774,0.0002215,53.2201,76.6491,39.0332,321.0819,-0.0001032999999999,-1.932e-05,0.0,0 STARLINK-3459,1 51757U 22016AV  22298.38995552 -.00001932  00000-0 -10330-3 0  9992,2 51757  53.2201  76.6491 0002215  39.0332 321.0819 15.08830774 38933,6917.909000000002,95.438,541.306,538.241,0.0
51757.0,STARLINK-3459,PAYLOAD,2022-10-25 10:56:55,15.08830442,0.000224,53.22,76.3515,39.8375,320.2782,-9.916e-05,-1.866e-05,0.0,0 STARLINK-3459,1 51757U 22016AV  22298.45619660 -.00001866  00000-0 -99160-4 0  9998,2 51757  53.2200  76.3515 0002240  39.8375 320.2782 15.08830442 37839,6917.91,95.438,541.3240000000002,538.225,0.0
51757.0,STARLINK-3459,PAYLOAD,2022-10-25 15:43:04,15.08832653,0.0002177,53.2199,75.459,41.1914,318.9242,-7.4095e-05,-1.467e-05,0.0,0 STARLINK-3459,1 51757U 22016AV  22298.65491542 -.00001467  00000-0 -74095-4 0  9994,2 51757  53.2199  75.4590 0002177  41.1914 318.9242 15.08832653 37867,6917.903,95.438,541.274,538.262,0.0
51757.0,STARLINK-3459,PAYLOAD,2022-10-26 12:23:05,15.08836256,0.0002294,53.2194,71.5936,41.3796,318.737,0.0002198999999999,3.213e-05,0.0,0 STARLINK-3459,1 51757U 22016AV  22299.51603875  .00003213  00000-0  21990-3 0  9998,2 51757  53.2194  71.5936 0002294  41.3796 318.7370 15.08836256 39105,6917.892,95.438,541.344,538.17,0.0
51757.0,STARLINK-3459,PAYLOAD,2022-10-26 15:33:52,15.08838133,0.0002293,53.2194,70.9987,40.8003,319.316,0.00030882,4.63e-05,0.0,0 STARLINK-3459,1 51757U 22016AV  22299.64851934  .00004630  00000-0  30882-3 0  9997,2 51757  53.2194  70.9987 0002293  40.8003 319.3160 15.08838133 38017,6917.886,95.438,541.337,538.165,0.0
51757.0,STARLINK-3459,PAYLOAD,2022-10-27 09:03:06,15.08855616,0.0002318,53.2195,67.7277,42.0567,318.0603,0.00052567,8.091e-05,0.0,0 STARLINK-3459,1 51757U 22016AV  22300.37715412  .00008091  00000-0  52567-3 0  9999,2 51757  53.2195  67.7277 0002318  42.0567 318.0603 15.08855616 38126,6917.833000000001,95.437,541.3009999999998,538.094,0.0
51757.0,STARLINK-3459,PAYLOAD,2022-10-27 12:13:52,15.08859341,0.0002346999999999,53.2196,67.1329,41.1507,318.9662,0.00054876,8.461e-05,0.0,0 STARLINK-3459,1 51757U 22016AV  22300.50963278  .00008461  00000-0  54876-3 0  9995,2 51757  53.2196  67.1329 0002347  41.1507 318.9662 15.08859341 39253,6917.821,95.436,541.31,538.063,0.0
51757.0,STARLINK-3459,PAYLOAD,2022-10-27 15:24:38,15.08855427,0.0002396,53.2199,66.5384,39.8707,320.2461,0.00036589,5.542e-05,0.0,0 STARLINK-3459,1 51757U 22016AV  22300.64211325  .00005542  00000-0  36589-3 0  9997,2 51757  53.2199  66.5384 0002396  39.8707 320.2461 15.08855427 38163,6917.833000000001,95.437,541.356,538.0409999999998,0.0
51757.0,STARLINK-3459,PAYLOAD,2022-10-28 12:04:38,15.0885641,0.0002605,53.2198,62.6731,32.083,328.0321,0.00018372,2.638e-05,0.0,0 STARLINK-3459,1 51757U 22016AV  22301.50322416  .00002638  00000-0  18372-3 0  9990,2 51757  53.2198  62.6731 0002605  32.0830 328.0321 15.08856410 38298,6917.83,95.437,541.497,537.893,0.0
51757.0,STARLINK-3459,PAYLOAD,2022-10-29 07:09:16,15.08844984,0.0002288,53.2177,59.1044,39.9017,320.2143,-4.6888e-05,-1.035e-05,0.0,0 STARLINK-3459,1 51757U 22016AV  22302.29810202 -.00001035  00000-0 -46888-4 0  9998,2 51757  53.2177  59.1044 0002288  39.9017 320.2143 15.08844984 39529,6917.865,95.437,541.313,538.1469999999998,0.0
51757.0,STARLINK-3459,PAYLOAD,2022-10-29 08:44:39,15.08846148,0.0002286,53.2176,58.807,40.3652,319.751,-3.3714e-05,-8.25e-06,0.0,0 STARLINK-3459,1 51757U 22016AV  22302.36434098 -.00000825  00000-0 -33714-4 0  9991,2 51757  53.2176  58.8070 0002286  40.3652 319.7510 15.08846148 38425,6917.861999999999,95.437,541.308,538.145,0.0
51757.0,STARLINK-3459,PAYLOAD,2022-10-29 16:41:34,15.08851782,0.0002318,53.2175,57.3217,40.5485,319.568,5.388e-05,5.700000000000001e-06,0.0,0 STARLINK-3459,1 51757U 22016AV  22302.69553574  .00000570  00000-0  53880-4 0  9999,2 51757  53.2175  57.3217 0002318  40.5485 319.5680 15.08851782 38474,6917.844,95.437,541.313,538.106,0.0
51757.0,STARLINK-3459,PAYLOAD,2022-10-30 11:46:11,15.08846209,0.0002392,53.2181,53.7524,35.464,324.6511,-5.9517e-05,-1.236e-05,0.0,0 STARLINK-3459,1 51757U 22016AV  22303.49041475 -.00001236  00000-0 -59517-4 0  9995,2 51757  53.2181  53.7524 0002392  35.4640 324.6511 15.08846209 38591,6917.861,95.437,541.381,538.072,0.0
51757.0,STARLINK-3459,PAYLOAD,2022-10-30 16:32:21,15.088412599999998,0.0002581,53.2183,52.8611,32.0422,328.0727,-7.3918e-05,-1.465e-05,0.0,0 STARLINK-3459,1 51757U 22016AV  22303.68913749 -.00001465  00000-0 -73918-4 0  9993,2 51757  53.2183  52.8611 0002581  32.0422 328.0727 15.08841260 38624,6917.877,95.437,541.5269999999998,537.956,0.0
51757.0,STARLINK-3459,PAYLOAD,2022-10-31 10:01:38,15.08818501,0.0002203,53.2193,49.5891,34.4707,325.6428,-7.4693e-05,-1.476e-05,0.0,0 STARLINK-3459,1 51757U 22016AV  22304.41780110 -.00001476  00000-0 -74693-4 0  9992,2 51757  53.2193  49.5891 0002203  34.4707 325.6428 15.08818501 38736,6917.946,95.439,541.335,538.2869999999998,0.0
51757.0,STARLINK-3459,PAYLOAD,2022-10-31 13:12:24,15.08819785,0.0002182,53.2192,48.9944,35.7613,324.3525,-6.6864e-05,-1.352e-05,0.0,0 STARLINK-3459,1 51757U 22016AV  22304.55028165 -.00001352  00000-0 -66864-4 0  9996,2 51757  53.2192  48.9944 0002182  35.7613 324.3525 15.08819785 38754,6917.941999999999,95.439,541.317,538.298,0.0
51757.0,STARLINK-3459,PAYLOAD,2022-11-01 01:55:28,15.08836413,0.0002432,53.2187,46.6157,32.5627,327.5515,3.5181e-05,2.72e-06,0.0,0 STARLINK-3459,1 51757U 22016AV  22305.08019241  .00000272  00000-0  35181-4 0  9996,2 51757  53.2187  46.6157 0002432  32.5627 327.5515 15.08836413 39940,6917.891,95.438,541.439,538.0740000000002,0.0
51757.0,STARLINK-3459,PAYLOAD,2022-11-01 13:03:09,15.08850315,0.0002487,53.219,44.5353,31.9897,328.1246,0.00011294,1.51e-05,0.0,0 STARLINK-3459,1 51757U 22016AV  22305.54386222  .00001510  00000-0  11294-3 0  9997,2 51757  53.2190  44.5353 0002487  31.9897 328.1246 15.08850315 38901,6917.849,95.437,541.434,537.993,0.0
51757.0,STARLINK-3459,PAYLOAD,2022-11-01 16:13:56,15.08844656,0.000262,53.2193,43.9404,29.3442,330.7697,0.00010183,1.333e-05,0.0,0 STARLINK-3459,1 51757U 22016AV  22305.67634705  .00001333  00000-0  10183-3 0  9992,2 51757  53.2193  43.9404 0002620  29.3442 330.7697 15.08844656 40037,6917.866,95.437,541.544,537.919,0.0
51757.0,STARLINK-3459,PAYLOAD,2022-11-02 12:53:58,15.08830104,0.0002315,53.2196,40.0755,28.9662,331.1458,0.00010972,1.458e-05,0.0,0 STARLINK-3459,1 51757U 22016AV  22306.53747697  .00001458  00000-0  10972-3 0  9997,2 51757  53.2196  40.0755 0002315  28.9662 331.1458 15.08830104 39050,6917.911,95.438,541.377,538.174,0.0
